[{"OBJECT_NAME":"WILDFIRE 6","OBJECT_ID":"2023-133G","EPOCH":"2026-03-09T22:36:17.475552","MEAN_MOTION":13.85319465,"ECCENTRICITY":0.0004585,"INCLINATION":80.992,"RA_OF_ASC_NODE":102.4593,"ARG_OF_PERICENTER":287.0723,"MEAN_ANOMALY":72.9931,"EPHEMERIS_TYPE":0,"CLASSIFICATION_TYPE":"U","NORAD_CAT_ID":57763,"ELEMENT_SET_NO":999,"REV_AT_EPOCH":12727,"BSTAR":5.6844456e-5,"MEAN_MOTION_DOT":7.6e-7,"MEAN_MOTION_DDOT":0},{"OBJECT_NAME":"EXPLORER 20","OBJECT_ID":"1964-051A","EPOCH":"2026-03-09T21:24:55.634112","MEAN_MOTION":13.91769262,"ECCENTRICITY":0.00966888,"INCLINATION":79.8998,"RA_OF_ASC_NODE":26.7964,"ARG_OF_PERICENTER":184.1501,"MEAN_ANOMALY":175.8866,"EPHEMERIS_TYPE":0,"CLASSIFICATION_TYPE":"U","NORAD_CAT_ID":870,"ELEMENT_SET_NO":999,"REV_AT_EPOCH":11962,"BSTAR":0.00010040406,"MEAN_MOTION_DOT":1.4e-6,"MEAN_MOTION_DDOT":0}]
